{
  "norad_id": 68421,
  "name": "TRANSPORTER-16 OBJECT F",
  "history": [
    {
      "epoch": "2026-04-14T03:10:33.867552Z",
      "apogee_km": 512.8733259483179,
      "perigee_km": 508.9012523236879,
      "latitude_deg": 6.909296496814064e-06,
      "longitude_deg": 173.60983410590723,
      "height_km": 514.2595946067751,
      "semi_major_axis_km": 6889.024289136002,
      "eccentricity": 0.00028829,
      "inclination_deg": 97.4464,
      "raan_deg": 63.5641,
      "arg_perigee_deg": 98.4001,
      "mean_anomaly_deg": 261.756,
      "mean_motion_rev_day": 15.18330052
    }
  ]
}