{"fetched_at":"2026-04-16T06:04:01Z","count":5425,"tles":[{"name":"TRANSPORTER-16 OBJECT F","line1":"1 68421U 26067F   26104.13233643  .00002710  00000+0  13532-3 0  9996","line2":"2 68421  97.4464  63.5641 0002882  98.4001 261.7560 15.18330052  2225","category":"Other"}]}